COSMOS 2456 (730)       
1 36111U 09070A   26116.46927973 -.00000001  00000+0  00000+0 0  9991
2 36111  64.9829  72.7347 0006203 317.1174 222.7507  2.13103360127326
COSMOS 2457 (733)       
1 36112U 09070B   26115.10898264  .00000011  00000+0  00000+0 0  9992
2 36112  64.9676  72.6263 0001155 164.5750 179.6091  2.13100772127296
COSMOS 2460 (732)       
1 36402U 10007C   26115.60205325 -.00000025  00000+0  00000+0 0  9997
2 36402  65.4503 316.2461 0002277  66.9045 297.1399  2.13105948125619
GPS BIIF-1  (PRN 25)    
1 36585U 10022A   26115.10453428 -.00000041  00000+0  00000+0 0  9998
2 36585  54.2773 210.7001 0126658  66.0807 291.1096  2.00559747116525
BEIDOU-2 IGSO-1 (C06)   
1 36828U 10036A   26113.83052642 -.00000109  00000+0  00000+0 0  9999
2 36828  54.2917 163.4511 0058355 224.0017 229.7808  1.00288096 57552
BEIDOU-2 G4 (C04)       
1 37210U 10057A   26116.52571090 -.00000123  00000+0  00000+0 0  9996
2 37210   3.5210  69.2327 0006521 213.0817 281.3977  1.00270097 56779
BEIDOU-2 IGSO-2 (C07)   
1 37256U 10068A   26116.37208593 -.00000219  00000+0  00000+0 0  9992
2 37256  47.6454 272.4714 0053173 211.4981 329.0054  1.00299816 56276
BEIDOU-2 IGSO-3 (C08)   
1 37384U 11013A   26114.73250720 -.00000201  00000+0  00000+0 0  9993
2 37384  62.3393  40.6572 0033701 188.3614 355.5484  1.00280536 55124
GSAT-8 (GAGAN/PRN 127)  
1 37605U 11022A   26116.50489987  .00000074  00000+0  00000+0 0  9992
2 37605   1.9994  82.4203 0004814 227.3314 141.5906  1.00269963 52709
BEIDOU-2 IGSO-4 (C09)   
1 37763U 11038A   26110.95130253 -.00000015  00000+0  00000+0 0  9992
2 37763  54.5868 166.1972 0158375 231.6843 245.8930  1.00257080 54072
GSAT0101 (GALILEO-PFM)  
1 37846U 11060A   26113.29606242 -.00000087  00000+0  00000+0 0  9994
2 37846  57.0105 343.2506 0003772  24.6527 335.4053  1.70475605 90182
GSAT0102 (GALILEO-FM2)  
1 37847U 11060B   26116.45263183 -.00000091  00000+0  00000+0 0  9994
2 37847  57.0107 343.1653 0004709   9.1421 173.7388  1.70475958 90241
COSMOS 2476 (744)       
1 37867U 11064A   26115.64061854  .00000013  00000+0  00000+0 0  9994
2 37867  65.2415  74.6442 0024289 242.1943 290.2948  2.13103647112648
COSMOS 2477 (745)       
1 37868U 11064B   26115.41341578  .00000015  00000+0  00000+0 0  9996
2 37868  65.2482  74.7307 0021218 243.9746 294.7055  2.13102721112632
COSMOS 2475 (743)       
1 37869U 11064C   26114.77306738  .00000019  00000+0  00000+0 0  9998
2 37869  65.2548  74.7734 0027333 255.5304 107.2412  2.13101455112631
BEIDOU-2 IGSO-5 (C10)   
1 37948U 11073A   26114.90441628 -.00000195  00000+0  00000+0 0  9995
2 37948  47.7775 272.2003 0110571 220.5837 139.3975  1.00260420 52603
LUCH 5A (SDCM/PRN 140)  
1 37951U 11074B   26116.57777743 -.00000055  00000+0  00000+0 0  9990
2 37951   8.6258  74.5510 0002734 304.1973 210.7539  1.00272889 52530
