[{"OBJECT_NAME":"COSMOS 2456 (730)","OBJECT_ID":"2009-070A","EPOCH":"2026-04-26T11:15:45.768672","MEAN_MOTION":2.1310336,"ECCENTRICITY":0.0006203,"INCLINATION":64.9829,"RA_OF_ASC_NODE":72.7347,"ARG_OF_PERICENTER":317.1174,"MEAN_ANOMALY":222.7507,"EPHEMERIS_TYPE":0,"CLASSIFICATION_TYPE":"U","NORAD_CAT_ID":36111,"ELEMENT_SET_NO":999,"REV_AT_EPOCH":12732,"BSTAR":0,"MEAN_MOTION_DOT":-1.0e-8,"MEAN_MOTION_DDOT":0},{"OBJECT_NAME":"COSMOS 2457 (733)","OBJECT_ID":"2009-070B","EPOCH":"2026-04-25T02:36:56.100096","MEAN_MOTION":2.13100772,"ECCENTRICITY":0.00011558,"INCLINATION":64.9676,"RA_OF_ASC_NODE":72.6263,"ARG_OF_PERICENTER":164.575,"MEAN_ANOMALY":179.6091,"EPHEMERIS_TYPE":0,"CLASSIFICATION_TYPE":"U","NORAD_CAT_ID":36112,"ELEMENT_SET_NO":999,"REV_AT_EPOCH":12729,"BSTAR":0,"MEAN_MOTION_DOT":1.1e-7,"MEAN_MOTION_DDOT":0},{"OBJECT_NAME":"COSMOS 2460 (732)","OBJECT_ID":"2010-007C","EPOCH":"2026-04-25T14:26:57.400800","MEAN_MOTION":2.13105948,"ECCENTRICITY":0.00022771,"INCLINATION":65.4503,"RA_OF_ASC_NODE":316.2461,"ARG_OF_PERICENTER":66.9045,"MEAN_ANOMALY":297.1399,"EPHEMERIS_TYPE":0,"CLASSIFICATION_TYPE":"U","NORAD_CAT_ID":36402,"ELEMENT_SET_NO":999,"REV_AT_EPOCH":12561,"BSTAR":0,"MEAN_MOTION_DOT":-2.5e-7,"MEAN_MOTION_DDOT":0},{"OBJECT_NAME":"GPS BIIF-1  (PRN 25)","OBJECT_ID":"2010-022A","EPOCH":"2026-04-25T02:30:31.761792","MEAN_MOTION":2.00559747,"ECCENTRICITY":0.01266581,"INCLINATION":54.2773,"RA_OF_ASC_NODE":210.7001,"ARG_OF_PERICENTER":66.0807,"MEAN_ANOMALY":291.1096,"EPHEMERIS_TYPE":0,"CLASSIFICATION_TYPE":"U","NORAD_CAT_ID":36585,"ELEMENT_SET_NO":999,"REV_AT_EPOCH":11652,"BSTAR":0,"MEAN_MOTION_DOT":-4.1e-7,"MEAN_MOTION_DDOT":0},{"OBJECT_NAME":"BEIDOU-2 IGSO-1 (C06)","OBJECT_ID":"2010-036A","EPOCH":"2026-04-23T19:55:57.482688","MEAN_MOTION":1.00288096,"ECCENTRICITY":0.00583551,"INCLINATION":54.2917,"RA_OF_ASC_NODE":163.4511,"ARG_OF_PERICENTER":224.0017,"MEAN_ANOMALY":229.7808,"EPHEMERIS_TYPE":0,"CLASSIFICATION_TYPE":"U","NORAD_CAT_ID":36828,"ELEMENT_SET_NO":999,"REV_AT_EPOCH":5755,"BSTAR":0,"MEAN_MOTION_DOT":-1.09e-6,"MEAN_MOTION_DDOT":0},{"OBJECT_NAME":"BEIDOU-2 G4 (C04)","OBJECT_ID":"2010-057A","EPOCH":"2026-04-26T12:37:01.421760","MEAN_MOTION":1.00270097,"ECCENTRICITY":0.0006521,"INCLINATION":3.521,"RA_OF_ASC_NODE":69.2327,"ARG_OF_PERICENTER":213.0817,"MEAN_ANOMALY":281.3977,"EPHEMERIS_TYPE":0,"CLASSIFICATION_TYPE":"U","NORAD_CAT_ID":37210,"ELEMENT_SET_NO":999,"REV_AT_EPOCH":5677,"BSTAR":0,"MEAN_MOTION_DOT":-1.23e-6,"MEAN_MOTION_DDOT":0},{"OBJECT_NAME":"BEIDOU-2 IGSO-2 (C07)","OBJECT_ID":"2010-068A","EPOCH":"2026-04-26T08:55:48.224352","MEAN_MOTION":1.00299816,"ECCENTRICITY":0.0053173,"INCLINATION":47.6454,"RA_OF_ASC_NODE":272.4714,"ARG_OF_PERICENTER":211.4981,"MEAN_ANOMALY":329.0054,"EPHEMERIS_TYPE":0,"CLASSIFICATION_TYPE":"U","NORAD_CAT_ID":37256,"ELEMENT_SET_NO":999,"REV_AT_EPOCH":5627,"BSTAR":0,"MEAN_MOTION_DOT":-2.19e-6,"MEAN_MOTION_DDOT":0},{"OBJECT_NAME":"BEIDOU-2 IGSO-3 (C08)","OBJECT_ID":"2011-013A","EPOCH":"2026-04-24T17:34:48.622080","MEAN_MOTION":1.00280536,"ECCENTRICITY":0.00337019,"INCLINATION":62.3393,"RA_OF_ASC_NODE":40.6572,"ARG_OF_PERICENTER":188.3614,"MEAN_ANOMALY":355.5484,"EPHEMERIS_TYPE":0,"CLASSIFICATION_TYPE":"U","NORAD_CAT_ID":37384,"ELEMENT_SET_NO":999,"REV_AT_EPOCH":5512,"BSTAR":0,"MEAN_MOTION_DOT":-2.01e-6,"MEAN_MOTION_DDOT":0},{"OBJECT_NAME":"GSAT-8 (GAGAN/PRN 127)","OBJECT_ID":"2011-022A","EPOCH":"2026-04-26T12:07:03.348768","MEAN_MOTION":1.00269963,"ECCENTRICITY":0.0004814,"INCLINATION":1.9994,"RA_OF_ASC_NODE":82.4203,"ARG_OF_PERICENTER":227.3314,"MEAN_ANOMALY":141.5906,"EPHEMERIS_TYPE":0,"CLASSIFICATION_TYPE":"U","NORAD_CAT_ID":37605,"ELEMENT_SET_NO":999,"REV_AT_EPOCH":5270,"BSTAR":0,"MEAN_MOTION_DOT":7.4e-7,"MEAN_MOTION_DDOT":0},{"OBJECT_NAME":"BEIDOU-2 IGSO-4 (C09)","OBJECT_ID":"2011-038A","EPOCH":"2026-04-20T22:49:52.538592","MEAN_MOTION":1.0025708,"ECCENTRICITY":0.01583758,"INCLINATION":54.5868,"RA_OF_ASC_NODE":166.1972,"ARG_OF_PERICENTER":231.6843,"MEAN_ANOMALY":245.893,"EPHEMERIS_TYPE":0,"CLASSIFICATION_TYPE":"U","NORAD_CAT_ID":37763,"ELEMENT_SET_NO":999,"REV_AT_EPOCH":5407,"BSTAR":0,"MEAN_MOTION_DOT":-1.5e-7,"MEAN_MOTION_DDOT":0},{"OBJECT_NAME":"GSAT0101 (GALILEO-PFM)","OBJECT_ID":"2011-060A","EPOCH":"2026-04-23T07:06:19.793088","MEAN_MOTION":1.70475605,"ECCENTRICITY":0.00037725,"INCLINATION":57.0105,"RA_OF_ASC_NODE":343.2506,"ARG_OF_PERICENTER":24.6527,"MEAN_ANOMALY":335.4053,"EPHEMERIS_TYPE":0,"CLASSIFICATION_TYPE":"U","NORAD_CAT_ID":37846,"ELEMENT_SET_NO":999,"REV_AT_EPOCH":9018,"BSTAR":0,"MEAN_MOTION_DOT":-8.7e-7,"MEAN_MOTION_DDOT":0},{"OBJECT_NAME":"GSAT0102 (GALILEO-FM2)","OBJECT_ID":"2011-060B","EPOCH":"2026-04-26T10:51:47.390112","MEAN_MOTION":1.70475958,"ECCENTRICITY":0.0004709,"INCLINATION":57.0107,"RA_OF_ASC_NODE":343.1653,"ARG_OF_PERICENTER":9.1421,"MEAN_ANOMALY":173.7388,"EPHEMERIS_TYPE":0,"CLASSIFICATION_TYPE":"U","NORAD_CAT_ID":37847,"ELEMENT_SET_NO":999,"REV_AT_EPOCH":9024,"BSTAR":0,"MEAN_MOTION_DOT":-9.1e-7,"MEAN_MOTION_DDOT":0},{"OBJECT_NAME":"COSMOS 2476 (744)","OBJECT_ID":"2011-064A","EPOCH":"2026-04-25T15:22:29.441856","MEAN_MOTION":2.13103647,"ECCENTRICITY":0.00242894,"INCLINATION":65.2415,"RA_OF_ASC_NODE":74.6442,"ARG_OF_PERICENTER":242.1943,"MEAN_ANOMALY":290.2948,"EPHEMERIS_TYPE":0,"CLASSIFICATION_TYPE":"U","NORAD_CAT_ID":37867,"ELEMENT_SET_NO":999,"REV_AT_EPOCH":11264,"BSTAR":0,"MEAN_MOTION_DOT":1.3e-7,"MEAN_MOTION_DDOT":0},{"OBJECT_NAME":"COSMOS 2477 (745)","OBJECT_ID":"2011-064B","EPOCH":"2026-04-25T09:55:19.123392","MEAN_MOTION":2.13102721,"ECCENTRICITY":0.00212181,"INCLINATION":65.2482,"RA_OF_ASC_NODE":74.7307,"ARG_OF_PERICENTER":243.9746,"MEAN_ANOMALY":294.7055,"EPHEMERIS_TYPE":0,"CLASSIFICATION_TYPE":"U","NORAD_CAT_ID":37868,"ELEMENT_SET_NO":999,"REV_AT_EPOCH":11263,"BSTAR":0,"MEAN_MOTION_DOT":1.5e-7,"MEAN_MOTION_DDOT":0},{"OBJECT_NAME":"COSMOS 2475 (743)","OBJECT_ID":"2011-064C","EPOCH":"2026-04-24T18:33:13.021632","MEAN_MOTION":2.13101455,"ECCENTRICITY":0.0027333,"INCLINATION":65.2548,"RA_OF_ASC_NODE":74.7734,"ARG_OF_PERICENTER":255.5304,"MEAN_ANOMALY":107.2412,"EPHEMERIS_TYPE":0,"CLASSIFICATION_TYPE":"U","NORAD_CAT_ID":37869,"ELEMENT_SET_NO":999,"REV_AT_EPOCH":11263,"BSTAR":0,"MEAN_MOTION_DOT":1.9e-7,"MEAN_MOTION_DDOT":0},{"OBJECT_NAME":"BEIDOU-2 IGSO-5 (C10)","OBJECT_ID":"2011-073A","EPOCH":"2026-04-24T21:42:21.566592","MEAN_MOTION":1.0026042,"ECCENTRICITY":0.01105716,"INCLINATION":47.7775,"RA_OF_ASC_NODE":272.2003,"ARG_OF_PERICENTER":220.5837,"MEAN_ANOMALY":139.3975,"EPHEMERIS_TYPE":0,"CLASSIFICATION_TYPE":"U","NORAD_CAT_ID":37948,"ELEMENT_SET_NO":999,"REV_AT_EPOCH":5260,"BSTAR":0,"MEAN_MOTION_DOT":-1.95e-6,"MEAN_MOTION_DDOT":0},{"OBJECT_NAME":"LUCH 5A (SDCM/PRN 140)","OBJECT_ID":"2011-074B","EPOCH":"2026-04-26T13:51:59.969952","MEAN_MOTION":1.00272889,"ECCENTRICITY":0.0002734,"INCLINATION":8.6258,"RA_OF_ASC_NODE":74.551,"ARG_OF_PERICENTER":304.1973,"MEAN_ANOMALY":210.7539,"EPHEMERIS_TYPE":0,"CLASSIFICATION_TYPE":"U","NORAD_CAT_ID":37951,"ELEMENT_SET_NO":999,"REV_AT_EPOCH":5253,"BSTAR":0,"MEAN_MOTION_DOT":-5.5e-7,"MEAN_MOTION_DDOT":0}]
